MEAN_MOTION;ECCENTRICITY;INCLINATION;RA_OF_ASC_NODE;ARG_OF_PERICENTER;MEAN_ANOMALY;BSTAR;MEAN_MOTION_DOT;MEAN_MOTION_DDOT;TYPE
11.86562613;0.0011282;51.9958;143.9471;356.1986;89.4808;0.00031578;-6.1E-7;0;Globalstar
11.86562706;0.0011301;51.9956;141.4544;357.9493;169.5855;0.00042066;-5.4E-7;0;Globalstar
11.86562797;0.0011326;51.9955;139.2734;359.4096;104.3357;0.00053746;-4.6E-7;0;Globalstar
11.8656282;0.0011334;51.9955;139.0233;359.5739;149.6703;0.00057564;-4.3E-7;0;Globalstar
11.86562947;0.0011365;51.9954;136.5823;1.2408;145.8493;0.00072478;-3.3E-7;0;Globalstar
11.8656297;0.0011367;51.9954;136.3549;1.4002;154.2823;0.00075838;-3.1E-7;0;Globalstar
11.86562974;0.001137;51.9954;136.1631;1.525;105.1596;0.00075562;-3.1E-7;0;Globalstar
11.8656311;0.0011395;51.9954;133.9211;3.0554;138.6579;0.00092492;-1.9E-7;0;Globalstar
11.86563131;0.0011395;51.9954;133.6871;3.2395;157.9777;0.00095096;-1.8E-7;0;Globalstar
11.86563228;0.0011418;51.9953;131.2937;4.946;76.9288;0.0010409;-1.1E-7;0;Globalstar
11.86563319;0.0011425;51.9953;129.5433;6.1502;33.7755;0.0010859;-8.0E-8;0;Globalstar
11.86563456;0.0011466;51.9952;128.353;6.8728;162.9142;0.0012182;1.0E-8;0;Globalstar
11.86563542;0.0011481;51.9952;126.8767;7.8618;35.4328;0.0011775;-2.0E-8;0;Globalstar
11.86563545;0.0011475;51.9952;126.6331;8.0751;70.1383;0.0011511;-4.0E-8;0;Globalstar
11.86563853;0.0011501;51.9951;122.4285;11.0587;44.3252;0.0011549;-4.0E-8;0;Globalstar
11.86563931;0.0011514;51.9951;121.0691;11.9843;87.4832;0.0011146;-6.0E-8;0;Globalstar
11.86563963;0.0011548;51.995;118.1507;14.0339;137.1653;0.00082274;-2.6E-7;0;Globalstar
11.86563932;0.0011553;51.995;117.9155;14.1887;158.4055;0.00071664;-3.4E-7;0;Globalstar
11.86563977;0.0011576;51.995;116.6737;15.0349;11.0835;0.00062942;-4.0E-7;0;Globalstar
11.86564078;0.0011607;51.9949;114.006;16.8595;14.292;0.00054889;-4.5E-7;0;Globalstar
11.86564076;0.0011617;51.9949;113.0497;17.5345;124.1395;0.00051179;-4.8E-7;0;Globalstar
11.86564094;0.0011645;51.9949;111.335;18.6494;22.9563;0.00048389;-5.0E-7;0;Globalstar
11.86564132;0.0011658;51.9948;110.3661;19.334;153.1008;0.00054409;-4.5E-7;0;Globalstar
11.86564132;0.0011673;51.9948;108.4273;20.6798;55.0556;0.0004678;-5.1E-7;0;Globalstar
11.86564177;0.0011676;51.9949;107.7154;21.2181;128.7438;0.00054465;-4.5E-7;0;Globalstar
11.86564282;0.0011699;51.995;105.0478;23.1255;131.8135;0.0006278;-4.0E-7;0;Globalstar
11.86564301;0.0011744;51.9951;102.3802;24.9741;135.4178;0.00062374;-4.0E-7;0;Globalstar
11.86564307;0.0011763;51.9951;101.1376;25.8317;349.2408;0.00061404;-4.1E-7;0;Globalstar
11.86564269;0.0011792;51.9951;99.7121;26.815;139.4319;0.00055727;-4.5E-7;0;Globalstar
11.86564236;0.0011827;51.9953;97.0439;28.6939;143.6781;0.00037674;-5.7E-7;0;Globalstar
11.86564236;0.0011827;51.9953;97.0439;28.6939;143.6781;0.00037674;-5.7E-7;0;Globalstar
11.8656421;0.0011863;51.9953;94.6121;30.3956;124.6213;0.000217;-6.8E-7;0;Globalstar
11.86564219;0.0011878;51.9954;92.6599;31.7756;48.3942;9.4834E-5;-7.6E-7;0;Globalstar
11.86564239;0.0011893;51.9955;92.1784;32.1052;108.8947;0.00013132;-7.4E-7;0;Globalstar
11.86564266;0.0011928;51.9956;89.5094;33.9817;114.464;7.0173E-5;-7.8E-7;0;Globalstar
11.86564288;0.0011966;51.9956;86.605;36.0139;141.5206;-4.6531E-6;-8.3E-7;0;Globalstar
11.86564319;0.0011997;51.9959;82.6968;38.8766;355.106;-0.00010496;-9.0E-7;0;Globalstar
11.86564311;0.0012002;51.9959;82.2241;39.2257;41.1935;-0.00012523;-9.1E-7;0;Globalstar
11.86564327;0.0012019;51.996;81.5043;39.7424;127.7658;-6.2036E-5;-8.7E-7;0;Globalstar
11.86564334;0.0012036;51.996;79.5588;41.1149;40.697;-4.3557E-5;-8.6E-7;0;Globalstar
11.86564349;0.0012045;51.9961;78.8401;41.622;125.5056;4.6015E-6;-8.2E-7;0;Globalstar
11.86564311;0.0012071;51.9963;76.894;43.0123;39.3744;-1.5406E-5;-8.4E-7;0;Globalstar
11.86564316;0.0012082;51.9963;76.1696;43.5253;133.4633;1.6739E-5;-8.2E-7;0;Globalstar
11.86564321;0.0012097;51.9965;74.2084;44.9012;71.8584;2.0768E-5;-8.1E-7;0;Globalstar
11.86564337;0.0012107;51.9966;73.7335;45.2423;121.6323;5.9947E-5;-7.9E-7;0;Globalstar
11.86564389;0.0012139;51.9969;71.0737;47.1346;112.4573;0.00014409;-7.3E-7;0;Globalstar
11.86564482;0.0012139;51.9971;69.5742;48.2201;22.5912;0.00026701;-6.4E-7;0;Globalstar
11.86564543;0.0012168;51.9972;68.4057;49.0701;116.4128;0.00038745;-5.6E-7;0;Globalstar
11.86564751;0.0012222;51.9977;64.4891;51.8595;344.1905;0.00056129;-4.4E-7;0;Globalstar
11.86564838;0.0012244;51.9979;62.8825;52.9932;68.2672;0.00059389;-4.2E-7;0;Globalstar
11.8656501;0.0012277;51.9981;59.1417;55.6568;11.5081;0.00064249;-3.9E-7;0;Globalstar
11.86565054;0.0012298;51.9983;56.4948;57.5735;341.4686;0.00053129;-4.6E-7;0;Globalstar
11.8656511;0.0012322;51.9983;55.1152;58.5653;57.5307;0.00054209;-4.6E-7;0;Globalstar
11.86565198;0.0012338;51.9985;53.1224;59.9996;47.3675;0.00058023;-4.3E-7;0;Globalstar
11.86565206;0.0012337;51.9985;52.8636;60.2012;106.7124;0.00056785;-4.4E-7;0;Globalstar
11.86565326;0.001236;51.9987;50.2446;62.0749;31.5272;0.00062929;-4.0E-7;0;Globalstar
11.86565337;0.0012375;51.9987;48.7268;63.1817;331.497;0.00059191;-4.2E-7;0;Globalstar
11.86565423;0.0012393;51.9988;47.5344;64.0398;104.275;0.0007125;-3.4E-7;0;Globalstar
11.86565473;0.0012409;51.9989;45.8044;65.3028;28.1119;0.0007185;-3.4E-7;0;Globalstar
11.86565595;0.001244;51.9991;43.15;67.1961;10.5639;0.00079208;-2.8E-7;0;Globalstar
11.86565638;0.0012453;51.9991;42.4373;67.694;85.6991;0.0008389;-2.5E-7;0;Globalstar
11.86565732;0.0012481;51.9993;39.7698;69.6067;89.2609;0.00080844;-2.7E-7;0;Globalstar
11.86565903;0.001251;51.9995;37.1027;71.5121;92.3098;0.00091378;-2.0E-7;0;Globalstar
11.86565967;0.0012531;51.9995;35.3816;72.7675;2.1143;0.00087635;-2.3E-7;0;Globalstar
11.86566032;0.0012545;51.9995;34.4318;73.4181;101.6666;0.0009419;-1.8E-7;0;Globalstar
11.86566098;0.0012562;51.9996;32.7157;74.6646;3.2459;0.00085923;-2.4E-7;0;Globalstar
11.86566229;0.0012587;51.9997;30.0339;76.6158;30.2465;0.00081136;-2.7E-7;0;Globalstar
11.8656625;0.0012596;51.9997;29.336;77.1179;81.4649;0.00080126;-2.8E-7;0;Globalstar
11.8656632;0.0012611;51.9997;27.3856;78.5114;2.7522;0.00075486;-3.1E-7;0;Globalstar
11.86566355;0.0012619;51.9997;26.6682;79.0094;85.5643;0.00077925;-2.9E-7;0;Globalstar
11.86566436;0.0012629;51.9997;24.7058;80.4182;26.2269;0.00078403;-2.9E-7;0;Globalstar
11.86566554;0.0012653;51.9997;22.2819;82.1438;355.1005;0.00080199;-2.8E-7;0;Globalstar
11.86566665;0.0012672;51.9998;19.6164;84.186;355.3319;0.00079018;-2.9E-7;0;Globalstar
11.86566676;0.0012681;51.9998;18.9016;84.718;73.9453;0.00078989;-2.9E-7;0;Globalstar
11.86566717;0.00127;51.9997;16.9513;86.1266;355.104;0.00076337;-3.0E-7;0;Globalstar
11.86566761;0.001271;51.9997;16.2318;86.6242;81.334;0.00082316;-2.6E-7;0;Globalstar
11.86566844;0.0012726;51.9997;14.2876;88.0315;352.4376;0.00086395;-2.4E-7;0;Globalstar
11.86566875;0.0012736;51.9997;13.6231;88.4951;349.6073;0.00087797;-2.3E-7;0;Globalstar
11.86566941;0.0012753;51.9997;11.8473;89.7872;347.6851;0.00084399;-2.5E-7;0;Globalstar
11.86567081;0.001278;51.9996;9.1823;91.7174;347.3264;0.00088529;-2.2E-7;0;Globalstar
11.8656721;0.0012804;51.9996;6.5167;93.6568;347.6729;0.00091773;-2.0E-7;0;Globalstar
11.86567196;0.0012804;51.9996;6.2842;93.8145;4.6636;0.00087795;-2.3E-7;0;Globalstar
11.86567234;0.0012827;51.9996;3.8533;95.5871;344.7293;0.00078124;-2.9E-7;0;Globalstar
11.8656724;0.0012827;51.9996;3.6185;95.7451;5.3224;0.00078787;-2.9E-7;0;Globalstar
11.8656731;0.0012844;51.9994;0.9317;97.6733;40.2271;0.00070903;-3.4E-7;0;Globalstar
11.86567355;0.0012868;51.9993;358.0271;99.7611;68.0271;0.00056875;-4.4E-7;0;Globalstar
11.86567355;0.0012889;51.9991;355.8499;101.3865;356.7528;0.0004643;-5.1E-7;0;Globalstar
11.86567347;0.0012877;51.999;355.1763;101.7749;8.4462;0.00046559;-5.1E-7;0;Globalstar
11.86567328;0.0012886;51.999;354.0841;102.6305;338.7178;0.00042052;-5.4E-7;0;Globalstar
11.86567297;0.0012893;51.9989;353.1579;103.2847;39.6516;0.00034969;-5.9E-7;0;Globalstar
11.86567309;0.0012899;51.9988;352.5234;103.7621;347.9903;0.00034585;-5.9E-7;0;Globalstar
11.86567306;0.0012901;51.9988;352.2579;103.9684;58.261;0.00031857;-6.1E-7;0;Globalstar
11.86567319;0.0012913;51.9987;350.5166;105.2493;0.4498;0.0003175;-6.1E-7;0;Globalstar
11.86567307;0.0012923;51.9986;348.3128;106.8423;332.0096;0.00021209;-6.8E-7;0;Globalstar
11.86567262;0.0012919;51.9987;345.4294;108.9998;324.9643;5.8607E-5;-7.9E-7;0;Globalstar
11.86567241;0.0012917;51.9986;344.9552;109.3174;13.5766;2.3193E-5;-8.1E-7;0;Globalstar
11.86567215;0.0012931;51.9986;342.9949;110.7842;310.5944;-4.1944E-5;-8.6E-7;0;Globalstar
11.86567189;0.0012933;51.9985;342.0882;111.4282;340.2346;-8.2892E-5;-8.8E-7;0;Globalstar
11.86567109;0.0012939;51.9985;340.0557;112.9155;34.2031;-0.00022477;-9.8E-7;0;Globalstar
11.86567024;0.0012954;51.9984;337.6633;114.7063;311.6127;-0.00033413;-1.06E-6;0;Globalstar
11.86567003;0.0012954;51.9984;337.4255;114.8685;337.1478;-0.00036593;-1.08E-6;0;Globalstar
11.86566957;0.0012966;51.9983;334.9791;116.6869;341.9595;-0.00037548;-1.09E-6;0;Globalstar
11.86566941;0.0012966;51.9983;334.7582;116.8484;339.9615;-0.00039258;-1.1E-6;0;Globalstar
11.86566851;0.0012974;51.9983;332.3137;118.6165;341.7194;-0.00045119;-1.14E-6;0;Globalstar
11.86566846;0.0012976;51.9983;330.8056;119.7127;266.0085;-0.00042604;-1.12E-6;0;Globalstar
11.8656677;0.0012984;51.9982;329.6464;120.6021;344.5329;-0.00051024;-1.18E-6;0;Globalstar
11.86566695;0.0012988;51.9981;326.9902;122.5441;329.2742;-0.00052195;-1.19E-6;0;Globalstar
11.86566661;0.0012987;51.9981;326.3197;123.0242;336.0474;-0.00055414;-1.21E-6;0;Globalstar
11.86566597;0.0012991;51.998;324.323;124.5129;332.065;-0.00058192;-1.23E-6;0;Globalstar
11.86566583;0.001299;51.998;323.8834;124.8104;324.4613;-0.00058447;-1.23E-6;0;Globalstar
11.86566496;0.0012992;51.998;321.656;126.4383;334.5349;-0.00063231;-1.26E-6;0;Globalstar
11.86566488;0.0012992;51.998;321.2174;126.761;325.3942;-0.00062353;-1.26E-6;0;Globalstar
11.86566402;0.0012994;51.9979;318.9891;128.3916;336.6258;-0.00065;-1.27E-6;0;Globalstar
